ONEWEB-0706             
1 61611U 24188T   25190.51733425  .00000710  00000+0  20118-2 0  9996
2 61611  87.8827 104.6089 0001994  65.4229 294.7106 13.09906444 36611
ONEWEB-0707             
1 61612U 24188U   25189.83914968  .00000532  00000+0  14887-2 0  9991
2 61612  87.8816 104.7129 0002212  61.3962 298.7387 13.10373344 38356
ONEWEB-0708             
1 61613U 24188V   25190.16284178 -.00000277  00000+0 -82930-3 0  9996
2 61613  87.8874 104.6675 0001784  53.0760 307.0530 13.10370229 36646
